NORAD_CAT_ID,OBJECT_NAME,OBJECT_TYPE,EPOCH,MEAN_MOTION,ECCENTRICITY,INCLINATION,RA_OF_ASC_NODE,ARG_OF_PERICENTER,MEAN_ANOMALY,BSTAR,MEAN_MOTION_DOT,MEAN_MOTION_DDOT,TLE_LINE0,TLE_LINE1,TLE_LINE2,SEMIMAJOR_AXIS,PERIOD,APOGEE,PERIGEE,DECAYED
55748.0,STARLINK-5580,PAYLOAD,2024-07-15 17:52:46,14.98334445,0.000343,70.0006,322.2122,270.6145,89.4621,9.103e-05,9.93e-06,0.0,0 STARLINK-5580,1 55748U 23028H   24197.74498663  .00000993  00000-0  91030-4 0  9992,2 55748  70.0006 322.2122 0003430 270.6145  89.4621 14.98334445 75875,6950.179,96.107,574.428,569.66,0.0
55748.0,STARLINK-5580,PAYLOAD,2024-07-16 01:53:27,14.98324031,0.0003221,70.0013,321.3714,273.0707,87.0083,9.4487e-05,1.034e-05,0.0,0 STARLINK-5580,1 55748U 23028H   24198.07879351  .00001034  00000-0  94487-4 0  9992,2 55748  70.0013 321.3714 0003221 273.0707  87.0083 14.98324031 75921,6950.211,96.107,574.315,569.838,0.0
55748.0,STARLINK-5580,PAYLOAD,2024-07-16 13:06:23,14.98329946,0.0003389,70.0012,320.1921,269.788,90.289,5.7266e-05,5.9e-06,0.0,0 STARLINK-5580,1 55748U 23028H   24198.54611020  .00000590  00000-0  57266-4 0  9991,2 55748  70.0012 320.1921 0003389 269.7880  90.2890 14.98329946 75995,6950.193,96.107,574.413,569.703,0.0
55748.0,STARLINK-5580,PAYLOAD,2024-07-16 16:18:39,14.98338867,0.0002998,70.0014,319.8555,264.2362,95.8456,3.7462e-05,3.54e-06,0.0,0 STARLINK-5580,1 55748U 23028H   24198.67962433  .00000354  00000-0  37462-4 0  9996,2 55748  70.0014 319.8555 0002998 264.2362  95.8456 14.98338867 76010,6950.165,96.106,574.114,569.947,0.0
55748.0,STARLINK-5580,PAYLOAD,2024-07-17 13:08:25,14.98324764,0.0002996,70.0022,317.6704,261.4935,98.5885,7.2097e-05,7.67e-06,0.0,0 STARLINK-5580,1 55748U 23028H   24199.54751219  .00000767  00000-0  72097-4 0  9992,2 55748  70.0022 317.6704 0002996 261.4935  98.5885 14.98324764 76145,6950.209,96.107,574.156,569.992,0.0
55748.0,STARLINK-5580,PAYLOAD,2024-07-17 14:44:33,14.98326038,0.0003153,70.0023,317.503,266.4362,93.6436,5.3943e-05,5.51e-06,0.0,0 STARLINK-5580,1 55748U 23028H   24199.61427202  .00000551  00000-0  53943-4 0  9992,2 55748  70.0023 317.5030 0003153 266.4362  93.6436 14.98326038 76157,6950.205,96.107,574.262,569.879,0.0
55748.0,STARLINK-5580,PAYLOAD,2024-07-17 17:56:49,14.98326257,0.0003148,70.0021,317.1661,266.8864,93.1935,4.6026e-05,4.56e-06,0.0,0 STARLINK-5580,1 55748U 23028H   24199.74779220  .00000456  00000-0  46026-4 0  9994,2 55748  70.0021 317.1661 0003148 266.8864  93.1935 14.98326257 76170,6950.204,96.107,574.257,569.882,0.0
55748.0,STARLINK-5580,PAYLOAD,2024-07-18 13:10:26,14.98324985,0.000299,70.0018,315.1457,266.8209,93.2608,2.2221e-05,1.72e-06,0.0,0 STARLINK-5580,1 55748U 23028H   24200.54891603  .00000172  00000-0  22221-4 0  9991,2 55748  70.0018 315.1457 0002990 266.8209  93.2608 14.98324985 76291,6950.208,96.107,574.152,569.995,0.0
55748.0,STARLINK-5580,PAYLOAD,2024-07-18 14:46:34,14.9833408,0.0002591,70.0019,314.9776,254.8189,105.2684,-0.00010027,-1.289e-05,0.0,0 STARLINK-5580,1 55748U 23028H   24200.61567287 -.00001289  00000-0 -10027-3 0  9999,2 55748  70.0019 314.9776 0002591 254.8189 105.2684 14.98334080 76301,6950.18,96.107,573.846,570.244,0.0
55748.0,STARLINK-5580,PAYLOAD,2024-07-18 17:58:50,14.98332059,0.0002814,70.002,314.6403,259.4988,100.5854,3.6101e-05,3.38e-06,0.0,0 STARLINK-5580,1 55748U 23028H   24200.74919156  .00000338  00000-0  36101-4 0  9993,2 55748  70.0020 314.6403 0002814 259.4988 100.5854 14.98332059 76326,6950.187,96.107,574.007,570.096,0.0
55748.0,STARLINK-5580,PAYLOAD,2024-07-19 14:48:34,14.98333916,0.0002868,70.0018,312.4517,264.3911,95.6921,0.00020537,2.359e-05,0.0,0 STARLINK-5580,1 55748U 23028H   24201.61706480  .00002359  00000-0  20537-3 0  9994,2 55748  70.0018 312.4517 0002868 264.3911  95.6921 14.98333916 76451,6950.181,96.107,574.039,570.052,0.0
55748.0,STARLINK-5580,PAYLOAD,2024-07-19 18:00:50,14.98337901,0.0002869,70.0016,312.1148,264.0773,96.006,0.00024174,2.793e-05,0.0,0 STARLINK-5580,1 55748U 23028H   24201.75058148  .00002793  00000-0  24174-3 0  9993,2 55748  70.0016 312.1148 0002869 264.0773  96.0060 14.98337901 76479,6950.168,96.106,574.027,570.039,0.0
55748.0,STARLINK-5580,PAYLOAD,2024-07-20 00:25:23,14.98329342,0.0002907,70.0027,311.4432,261.4597,98.6232,0.00016636,1.893e-05,0.0,0 STARLINK-5580,1 55748U 23028H   24202.01762850  .00001893  00000-0  16636-3 0  9999,2 55748  70.0027 311.4432 0002907 261.4597  98.6232 14.98329342 76511,6950.195,96.107,574.08,570.04,0.0
55748.0,STARLINK-5580,PAYLOAD,2024-07-20 13:14:28,14.98325444,0.0002763,70.0012,310.0954,261.7817,98.3028,1.9596e-05,1.41e-06,0.0,0 STARLINK-5580,1 55748U 23028H   24202.55171530  .00000141  00000-0  19596-4 0  9991,2 55748  70.0012 310.0954 0002763 261.7817  98.3028 14.98325444 76594,6950.207,96.107,573.992,570.152,0.0
55748.0,STARLINK-5580,PAYLOAD,2024-07-20 14:50:36,14.98325041,0.0002761,70.0013,309.9273,261.4385,98.6462,1.2289e-05,5.4e-07,0.0,0 STARLINK-5580,1 55748U 23028H   24202.61847586  .00000054  00000-0  12289-4 0  9994,2 55748  70.0013 309.9273 0002761 261.4385  98.6462 14.98325041 76601,6950.208,96.107,573.992,570.154,0.0
55748.0,STARLINK-5580,PAYLOAD,2024-07-20 16:26:44,14.983266,0.0002877,70.0013,309.7587,264.6555,95.4276,4.903e-05,4.92e-06,0.0,0 STARLINK-5580,1 55748U 23028H   24202.68523394  .00000492  00000-0  49030-4 0  9999,2 55748  70.0013 309.7587 0002877 264.6555  95.4276 14.98326600 76610,6950.203,96.107,574.068,570.069,0.0
55748.0,STARLINK-5580,PAYLOAD,2024-07-21 00:27:24,14.98334503,0.0002913,70.001,308.9165,264.5065,95.5762,7.081e-06,-8e-08,0.0,0 STARLINK-5580,1 55748U 23028H   24203.01902910 -.00000008  00000-0  70810-5 0  9997,2 55748  70.0010 308.9165 0002913 264.5065  95.5762 14.98334503 76663,6950.179,96.107,574.069,570.019,0.0
55748.0,STARLINK-5580,PAYLOAD,2024-07-21 14:52:36,14.98335849,0.0002946,70.0013,307.4017,268.8564,91.2257,2.8383e-05,2.46e-06,0.0,0 STARLINK-5580,1 55748U 23028H   24203.61986779  .00000246  00000-0  28383-4 0  9998,2 55748  70.0013 307.4017 0002946 268.8564  91.2257 14.98335849 76759,6950.175,96.107,574.087,569.992,0.0
55748.0,STARLINK-5580,PAYLOAD,2024-07-21 16:28:44,14.98338331,0.0002812,70.0013,307.2331,266.6777,93.406,3.6983e-05,3.48e-06,0.0,0 STARLINK-5580,1 55748U 23028H   24203.68662589  .00000348  00000-0  36983-4 0  9993,2 55748  70.0013 307.2331 0002812 266.6777  93.4060 14.98338331 76766,6950.167,96.106,573.987,570.078,0.0
55748.0,STARLINK-5580,PAYLOAD,2024-07-22 10:06:13,14.98327113,0.0002778,70.0012,305.3814,266.0762,94.008,0.00013106,1.471e-05,0.0,0 STARLINK-5580,1 55748U 23028H   24204.42099018  .00001471  00000-0  13106-3 0  9996,2 55748  70.0012 305.3814 0002778 266.0762  94.0080 14.98327113 76876,6950.202,96.107,573.998,570.136,0.0
55748.0,STARLINK-5580,PAYLOAD,2024-07-22 16:30:45,14.98329424,0.0002803,70.0015,304.7092,260.13,99.9543,0.00014311,1.615e-05,0.0,0 STARLINK-5580,1 55748U 23028H   24204.68802853  .00001615  00000-0  14311-3 0  9992,2 55748  70.0015 304.7092 0002803 260.1300  99.9543 14.98329424 76912,6950.195,96.107,574.008,570.112,0.0
55748.0,STARLINK-5580,PAYLOAD,2024-07-23 13:20:30,14.98334906,0.0002739,70.0015,302.5215,259.2509,100.8342,9.5849e-05,1.051e-05,0.0,0 STARLINK-5580,1 55748U 23028H   24205.55590551  .00001051  00000-0  95849-4 0  9998,2 55748  70.0015 302.5215 0002739 259.2509 100.8342 14.98334906 77048,6950.178,96.107,573.946,570.139,0.0
55748.0,STARLINK-5580,PAYLOAD,2024-07-24 10:10:15,14.98329286,0.0002774,70.0022,300.3358,256.2372,103.8478,2.7587e-05,2.36e-06,0.0,0 STARLINK-5580,1 55748U 23028H   24206.42379022  .00000236  00000-0  27587-4 0  9991,2 55748  70.0022 300.3358 0002774 256.2372 103.8478 14.98329286 77176,6950.195,96.107,573.988,570.132,0.0
55748.0,STARLINK-5580,PAYLOAD,2024-07-25 07:00:00,14.98332794,0.0003314,69.9999,298.1435,269.3402,90.7377,7.2323e-05,7.7e-06,0.0,0 STARLINK-5580,1 55748U 23028H   24207.29166670  .00000770  00000-0  72323-4 0  9991,2 55748  69.9999 298.1435 0003314 269.3402  90.7377 14.98332794 77301,6950.184,96.107,574.353,569.746,0.0
55748.0,STARLINK-5580,PAYLOAD,2024-07-25 10:12:15,14.98335092,0.0003256,70.0002,297.807,268.3264,91.7523,8.2952e-05,8.97e-06,0.0,0 STARLINK-5580,1 55748U 23028H   24207.42518475  .00000897  00000-0  82952-4 0  9999,2 55748  70.0002 297.8070 0003256 268.3264  91.7523 14.98335092 77320,6950.177,96.107,574.305,569.779,0.0
55748.0,STARLINK-5580,PAYLOAD,2024-07-25 23:01:19,14.98341546,0.0002815,70.0009,296.4603,267.4758,92.6079,0.00019744,2.264e-05,0.0,0 STARLINK-5580,1 55748U 23028H   24207.95925449  .00002264  00000-0  19744-3 0  9998,2 55748  70.0009 296.4603 0002815 267.4758  92.6079 14.98341546 77408,6950.157,96.106,573.979,570.066,0.0
55748.0,STARLINK-5580,PAYLOAD,2024-07-26 10:14:15,14.9834405,0.0002903,70.0005,295.2816,263.3099,96.7729,0.00021861,2.517e-05,0.0,0 STARLINK-5580,1 55748U 23028H   24208.42656866  .00002517  00000-0  21861-3 0  9999,2 55748  70.0005 295.2816 0002903 263.3099  96.7729 14.98344050 77475,6950.149,96.106,574.032,569.997,0.0
55748.0,STARLINK-5580,PAYLOAD,2024-07-26 11:50:23,14.98346302,0.0002862,70.0005,295.1134,262.5554,97.528,0.00024075,2.782e-05,0.0,0 STARLINK-5580,1 55748U 23028H   24208.49332616  .00002782  00000-0  24075-3 0  9994,2 55748  70.0005 295.1134 0002862 262.5554  97.5280 14.98346302 77482,6950.142,96.106,573.997,570.018,0.0
55748.0,STARLINK-5580,PAYLOAD,2024-07-27 07:04:01,14.98335779,0.0003008,69.9988,293.0904,260.7118,99.3701,-9.7034e-05,-1.251e-05,0.0,0 STARLINK-5580,1 55748U 23028H   24209.29445825 -.00001251  00000-0 -97034-4 0  9998,2 55748  69.9988 293.0904 0003008 260.7118  99.3701 14.98335779 77608,6950.175,96.107,574.131,569.949,0.0
55748.0,STARLINK-5580,PAYLOAD,2024-07-27 10:16:17,14.98332241,0.0003634,69.9975,292.7535,271.723,88.3512,-0.00012238,-1.553e-05,0.0,0 STARLINK-5580,1 55748U 23028H   24209.42798093 -.00001553  00000-0 -12238-3 0  9998,2 55748  69.9975 292.7535 0003634 271.7230  88.3512 14.98332241 77623,6950.186,96.107,574.577,569.525,0.0
